OBJECT_NAME,OBJECT_ID,EPOCH,MEAN_MOTION,ECCENTRICITY,INCLINATION,RA_OF_ASC_NODE,ARG_OF_PERICENTER,MEAN_ANOMALY,EPHEMERIS_TYPE,CLASSIFICATION_TYPE,NORAD_CAT_ID,ELEMENT_SET_NO,REV_AT_EPOCH,BSTAR,MEAN_MOTION_DOT,MEAN_MOTION_DDOT
QIANFAN-145,2026-108A,2026-06-15T00:46:11.522784,14.02709330,.00109214,89.0102,22.4644,125.5635,234.6565,0,U,69104,999,403,-.13605387E+1,-.1955834E-1,0
QIANFAN-146,2026-108B,2026-06-15T01:40:08.037408,14.10228719,.00219756,89.0109,22.4338,118.7449,241.5947,0,U,69105,999,405,-.10917264E+1,-.1790175E-1,0
QIANFAN-147,2026-108C,2026-06-15T00:15:47.758752,14.04025606,.00100991,89.0098,22.4609,127.3441,232.8662,0,U,69106,999,403,-.13242868E+1,-.1949328E-1,0
QIANFAN-148,2026-108D,2026-06-15T01:49:57.827136,14.03427831,.00125953,89.0097,22.4519,133.2745,226.9488,0,U,69107,999,404,-.12612374E+1,-.1824084E-1,0
QIANFAN-149,2026-108E,2026-06-14T15:33:22.270752,14.03893931,.00175301,89.0107,22.5000,139.6291,220.6195,0,U,69108,999,398,-.13528958E+1,-.198591E-1,0
QIANFAN-150,2026-108F,2026-06-15T01:25:43.404960,14.06156737,.00172633,89.0108,22.4515,121.7388,238.5480,0,U,69109,999,404,-.13633862E+1,-.2077194E-1,0
QIANFAN-151,2026-108G,2026-06-15T01:18:56.012544,14.04829492,.00129007,89.0107,22.4500,123.5350,236.7065,0,U,69110,999,404,-.12873077E+1,-.1924678E-1,0
QIANFAN-152,2026-108H,2026-06-15T01:02:57.487488,14.06513037,.00162698,89.0101,22.4488,121.8532,238.4236,0,U,69111,999,404,-.1335286E+1,-.2049278E-1,0
QIANFAN-153,2026-108J,2026-06-15T00:57:42.460992,14.05715786,.00185081,89.0099,22.4471,125.4893,234.8020,0,U,69112,999,404,-.13902497E+1,-.2100041E-1,0
QIANFAN-154,2026-108K,2026-06-15T02:26:22.046784,14.05684826,.00132301,89.0109,22.4395,119.9806,240.2691,0,U,69113,999,405,-.12762954E+1,-.1936964E-1,0
QIANFAN-155,2026-108L,2026-06-15T00:53:11.119200,14.05344057,.00142978,89.0105,22.4482,125.6419,234.6097,0,U,69114,999,404,-.13371901E+1,-.2011724E-1,0
QIANFAN-156,2026-108M,2026-06-15T02:09:17.627904,14.06664979,.00163165,89.0115,22.4389,114.4577,245.8309,0,U,69115,999,405,-.11723634E+1,-.1799661E-1,0
QIANFAN-157,2026-108N,2026-06-15T01:19:37.929504,14.09124790,.00218102,89.0105,22.4322,121.2993,239.0331,0,U,69116,999,405,-.11155061E+1,-.1792563E-1,0
QIANFAN-158,2026-108P,2026-06-15T01:52:22.118592,14.07507552,.00182995,89.0107,22.4354,114.0477,246.2624,0,U,69117,999,405,-.10378267E+1,-.1630033E-1,0
QIANFAN-159,2026-108Q,2026-06-15T01:42:04.717152,14.08726027,.00206977,89.0097,22.4337,110.5886,249.7521,0,U,69118,999,405,-.12083977E+1,-.1939569E-1,0
QIANFAN-160,2026-108R,2026-06-15T03:21:43.308576,14.11952593,.00158864,89.0112,22.4263,116.5257,243.7559,0,U,69119,999,406,.14681669E-4,.41E-6,0
QIANFAN-161,2026-108S,2026-06-15T01:21:33.229440,14.09555758,.00208515,89.0111,22.4327,124.9273,235.3875,0,U,69120,999,405,-.1104511E+1,-.1788802E-1,0
QIANFAN-162,2026-108T,2026-06-15T01:15:47.645856,14.10876262,.00192635,89.0108,22.4315,131.0717,229.2136,0,U,69121,999,405,-.93570728E+0,-.1567035E-1,0
SMILE,2026-109A,2026-05-24T15:40:35.120928,14.57062785,.00091232,70.0007,229.2745,259.5159,100.4951,0,U,69123,999,80,-.42378883E-3,-.1976E-4,0
STARLINK-37726,2026-110A,2026-06-15T11:44:27.693024,15.49205544,.0001562,97.2835,2.6913,85.2687,274.8743,0,U,69124,999,533,.38964E-3,.21171E-3,0
STARLINK-37722,2026-110B,2026-06-15T13:12:33.568992,15.49208597,.0001731,97.2822,2.9146,97.0248,263.1200,0,U,69125,999,535,.52493E-3,.28583E-3,0
STARLINK-37715,2026-110C,2026-06-15T12:00:02.000160,15.33420188,.0001835,97.2841,2.8850,85.9545,41.7527,0,U,69126,999,538,.16285E-2,.52827E-3,0
STARLINK-37706,2026-110D,2026-06-15T12:00:02.000160,15.33421887,.0001753,97.2842,2.8922,83.4787,59.2180,0,U,69127,999,538,.16355E-2,.53058E-3,0
STARLINK-37723,2026-110E,2026-06-15T12:00:02.000160,15.33422225,.0001542,97.2843,2.8988,88.4006,69.2961,0,U,69128,999,538,.16369E-2,.53106E-3,0
STARLINK-37720,2026-110F,2026-06-15T13:04:49.518048,15.49212156,.0001687,97.2831,2.7681,117.2512,242.8911,0,U,69129,999,534,.92969E-3,.50842E-3,0
STARLINK-37533,2026-110G,2026-06-15T12:00:02.000160,15.33416472,.0001443,97.2841,2.9176,88.0594,114.6343,0,U,69130,999,538,.16557E-2,.53711E-3,0
STARLINK-37530,2026-110H,2026-06-15T12:00:02.000160,15.33420475,.0002028,97.2841,2.9248,84.5679,133.1341,0,U,69131,999,538,.16407E-2,.53229E-3,0
STARLINK-37660,2026-110J,2026-06-15T12:00:02.000160,15.44413209,.0001925,97.2847,2.9030,66.9980,87.9243,0,U,69132,999,538,-.57941E-1,-.2383324E-1,0
STARLINK-37633,2026-110K,2026-06-15T12:43:46.102080,15.46475871,.0002182,97.2830,2.9405,76.9446,283.2047,0,U,69133,999,535,-.1028E-1,-.479179E-2,0
